NORAD_CAT_ID,OBJECT_NAME,OBJECT_TYPE,EPOCH,MEAN_MOTION,ECCENTRICITY,INCLINATION,RA_OF_ASC_NODE,ARG_OF_PERICENTER,MEAN_ANOMALY,BSTAR,MEAN_MOTION_DOT,MEAN_MOTION_DDOT,TLE_LINE0,TLE_LINE1,TLE_LINE2,SEMIMAJOR_AXIS,PERIOD,APOGEE,PERIGEE,DECAYED
51808.0,STARLINK-3609,PAYLOAD,2024-07-25 00:58:48,15.08852517,0.0001406,53.217,119.6263,125.2854,234.827,4.3629e-05,4.07e-06,0.0,0 STARLINK-3609,1 51808U 22017AS  24207.04084005  .00000407  00000-0  43629-4 0  9999,2 51808  53.2170 119.6263 0001406 125.2854 234.8270 15.08852517134598,6917.842,95.437,540.68,538.734,0.0
51808.0,STARLINK-3609,PAYLOAD,2024-07-25 18:28:03,15.08831301,0.0001216,53.218,116.3589,99.841,260.2719,0.00034086,5.14e-05,0.0,0 STARLINK-3609,1 51808U 22017AS  24207.76948733  .00005140  00000-0  34086-3 0  9990,2 51808  53.2180 116.3589 0001216  99.8410 260.2719 15.08831301134709,6917.907,95.438,540.613,538.931,0.0
51808.0,STARLINK-3609,PAYLOAD,2024-07-26 04:00:22,15.08831297,9.16e-05,53.2145,114.5699,91.8403,268.2694,0.00016485,2.336e-05,0.0,0 STARLINK-3609,1 51808U 22017AS  24208.16693107  .00002336  00000-0  16485-3 0  9994,2 51808  53.2145 114.5699 0000916  91.8403 268.2694 15.08831297134661,6917.907,95.438,540.406,539.138,0.0
51808.0,STARLINK-3609,PAYLOAD,2024-07-26 10:21:54,15.08843648,0.0001304,53.2179,113.3838,119.2883,240.824,0.00021993,3.214e-05,0.0,0 STARLINK-3609,1 51808U 22017AS  24208.43188504  .00003214  00000-0  21993-3 0  9990,2 51808  53.2179 113.3838 0001304 119.2883 240.8240 15.08843648134700,6917.869,95.437,540.636,538.832,0.0
51808.0,STARLINK-3609,PAYLOAD,2024-07-27 22:55:48,15.08827048,9.95e-05,53.2131,106.5391,43.1658,316.9412,-1.6004e-05,-5.42e-06,0.0,0 STARLINK-3609,1 51808U 22017AS  24209.95542002 -.00000542  00000-0 -16004-4 0  9996,2 51808  53.2131 106.5391 0000995  43.1658 316.9412 15.08827048134933,6917.92,95.438,540.473,539.097,0.0
51808.0,STARLINK-3609,PAYLOAD,2024-07-28 00:31:11,15.08821879,0.0001325,53.2171,106.2481,87.6414,272.473,-3.2273e-05,-8.01e-06,0.0,0 STARLINK-3609,1 51808U 22017AS  24210.02166423 -.00000801  00000-0 -32273-4 0  9999,2 51808  53.2171 106.2481 0001325  87.6414 272.4730 15.08821879135043,6917.936,95.439,540.717,538.884,0.0
51808.0,STARLINK-3609,PAYLOAD,2024-07-28 10:03:29,15.08833828,0.0001394,53.2174,104.4608,83.2404,276.8747,-2.6071e-06,-3.29e-06,0.0,0 STARLINK-3609,1 51808U 22017AS  24210.41909694 -.00000329  00000-0 -26071-5 0  9992,2 51808  53.2174 104.4608 0001394  83.2404 276.8747 15.08833828135104,6917.899,95.438,540.729,538.8,0.0
51808.0,STARLINK-3609,PAYLOAD,2024-07-28 22:46:35,15.08824561,0.0001596,53.2173,102.0842,86.0599,274.0576,0.00016006,2.259e-05,0.0,0 STARLINK-3609,1 51808U 22017AS  24210.94901802  .00002259  00000-0  16006-3 0  9990,2 51808  53.2173 102.0842 0001596  86.0599 274.0576 15.08824561135088,6917.928,95.439,540.897,538.688,0.0
51808.0,STARLINK-3609,PAYLOAD,2024-07-29 09:54:16,15.08840324,0.0001491,53.2171,99.9974,78.555,281.561,0.00027419,4.078e-05,0.0,0 STARLINK-3609,1 51808U 22017AS  24211.41268712  .00004078  00000-0  27419-3 0  9990,2 51808  53.2171  99.9974 0001491  78.5550 281.5610 15.08840324135259,6917.879,95.438,540.776,538.713,0.0
51808.0,STARLINK-3609,PAYLOAD,2024-07-29 21:01:59,15.08831893,0.0001965,53.2172,97.9141,81.3922,278.7292,0.00019562,2.826e-05,0.0,0 STARLINK-3609,1 51808U 22017AS  24211.87637840  .00002826  00000-0  19562-3 0  9991,2 51808  53.2172  97.9141 0001965  81.3922 278.7292 15.08831893135328,6917.905,95.438,541.13,538.411,0.0
51808.0,STARLINK-3609,PAYLOAD,2024-07-29 22:37:22,15.08829521,0.0001399,53.2159,97.6237,81.2832,278.8318,0.0001444,2.01e-05,0.0,0 STARLINK-3609,1 51808U 22017AS  24211.94262151  .00002010  00000-0  14440-3 0  9993,2 51808  53.2159  97.6237 0001399  81.2832 278.8318 15.08829521135231,6917.912,95.438,540.745,538.81,0.0
51808.0,STARLINK-3609,PAYLOAD,2024-07-30 09:45:03,15.08847577,0.0001511,53.2171,95.5421,82.4177,277.6987,0.00020167,2.924e-05,0.0,0 STARLINK-3609,1 51808U 22017AS  24212.40629031  .00002924  00000-0  20167-3 0  9996,2 51808  53.2171  95.5421 0001511  82.4177 277.6987 15.08847577135407,6917.857,95.437,540.768,538.677,0.0
51808.0,STARLINK-3609,PAYLOAD,2024-07-30 22:28:08,15.08849956,0.000163,53.2185,93.1601,91.935,268.1829,8.2041e-05,1.018e-05,0.0,0 STARLINK-3609,1 51808U 22017AS  24212.93621177  .00001018  00000-0  82041-4 0  9990,2 51808  53.2185  93.1601 0001630  91.9350 268.1829 15.08849956135386,6917.85,95.437,540.843,538.587,0.0
51808.0,STARLINK-3609,PAYLOAD,2024-07-31 09:35:50,15.08853283,0.0001496,53.2177,91.0785,87.0498,273.0665,0.00011415,1.53e-05,0.0,0 STARLINK-3609,1 51808U 22017AS  24213.39988590  .00001530  00000-0  11415-3 0  9991,2 51808  53.2177  91.0785 0001496  87.0498 273.0665 15.08853283135455,6917.84,95.437,540.74,538.67,0.0
51808.0,STARLINK-3609,PAYLOAD,2024-07-31 20:43:33,15.08827985,0.0001447,53.2154,88.9994,78.2506,281.8648,1.3118e-05,-7.9e-07,0.0,0 STARLINK-3609,1 51808U 22017AS  24213.86358476 -.00000079  00000-0  13118-4 0  9998,2 51808  53.2154  88.9994 0001447  78.2506 281.8648 15.08827985135622,6917.917,95.438,540.783,538.781,0.0
51808.0,STARLINK-3609,PAYLOAD,2024-07-31 22:18:56,15.08834121,0.0001469,53.2179,88.7012,85.1521,274.9639,-6.0171e-05,-1.245e-05,0.0,0 STARLINK-3609,1 51808U 22017AS  24213.92982304 -.00001245  00000-0 -60171-4 0  9996,2 51808  53.2179  88.7012 0001469  85.1521 274.9639 15.08834121135539,6917.898,95.438,540.78,538.747,0.0
51808.0,STARLINK-3609,PAYLOAD,2024-08-01 20:34:19,15.08848716,0.0001499,53.2189,84.5336,114.0542,246.0607,9.0771e-05,1.157e-05,0.0,0 STARLINK-3609,1 51808U 22017AS  24214.85716735  .00001157  00000-0  90771-4 0  9991,2 51808  53.2189  84.5336 0001499 114.0542 246.0607 15.08848716135777,6917.854,95.437,540.756,538.682,0.0
51808.0,STARLINK-3609,PAYLOAD,2024-08-01 22:09:41,15.08884729,0.0001219,53.2179,84.2377,102.7281,257.3848,-0.00083007,-0.0001349,0.0,0 STARLINK-3609,1 51808U 22017AS  24214.92339291 -.00013490  00000-0 -83007-3 0  9995,2 51808  53.2179  84.2377 0001219 102.7281 257.3848 15.08884729135688,6917.744,95.435,540.452,538.765,0.0
51808.0,STARLINK-3609,PAYLOAD,2024-08-02 20:25:07,15.08827583,0.0001568,53.2172,80.0759,110.0475,250.0686,3.3705e-05,2.48e-06,0.0,0 STARLINK-3609,1 51808U 22017AS  24215.85078142  .00000248  00000-0  33705-4 0  9999,2 51808  53.2172  80.0759 0001568 110.0475 250.0686 15.08827583135925,6917.918,95.438,540.868,538.699,0.0
51808.0,STARLINK-3609,PAYLOAD,2024-08-02 22:00:30,15.08829707,0.0001336,53.2167,79.7819,99.7444,260.3699,6.5591e-05,7.56e-06,0.0,0 STARLINK-3609,1 51808U 22017AS  24215.91702186  .00000756  00000-0  65591-4 0  9990,2 51808  53.2167  79.7819 0001336  99.7444 260.3699 15.08829707135831,6917.912,95.438,540.701,538.853,0.0
51808.0,STARLINK-3609,PAYLOAD,2024-08-03 07:32:48,15.088419,0.0001286,53.2167,77.9974,97.3942,262.7196,0.00011123,1.483e-05,0.0,0 STARLINK-3609,1 51808U 22017AS  24216.31445599  .00001483  00000-0  11123-3 0  9996,2 51808  53.2167  77.9974 0001286  97.3942 262.7196 15.08841900135998,6917.875,95.437,540.629,538.85,0.0
51808.0,STARLINK-3609,PAYLOAD,2024-08-03 21:51:17,15.08839235,0.0001615,53.2176,75.3252,114.274,245.8421,6.283e-05,7.12e-06,0.0,0 STARLINK-3609,1 51808U 22017AS  24216.91061884  .00000712  00000-0  62830-4 0  9999,2 51808  53.2176  75.3252 0001615 114.2740 245.8421 15.08839235135980,6917.883,95.438,540.865,538.63,0.0
51808.0,STARLINK-3609,PAYLOAD,2024-08-04 07:23:35,15.0886094,0.0001147,53.2163,73.5301,56.4739,303.6363,0.00048829,7.496e-05,0.0,0 STARLINK-3609,1 51808U 22017AS  24217.30804782  .00007496  00000-0  48829-3 0  9992,2 51808  53.2163  73.5301 0001147  56.4739 303.6363 15.08860940136140,6917.816,95.436,540.475,538.888,0.0
51808.0,STARLINK-3609,PAYLOAD,2024-08-04 20:06:41,15.0884615,0.0001519,53.2163,71.1585,84.9868,275.1298,0.00032386,4.871e-05,0.0,0 STARLINK-3609,1 51808U 22017AS  24217.83797853  .00004871  00000-0  32386-3 0  9995,2 51808  53.2163  71.1585 0001519  84.9868 275.1298 15.08846150136226,6917.862,95.437,540.777,538.676,0.0
51808.0,STARLINK-3609,PAYLOAD,2024-08-04 21:42:04,15.08854734,0.0001478,53.2166,70.8601,77.2356,282.8802,0.00060302,9.326e-05,0.0,0 STARLINK-3609,1 51808U 22017AS  24217.90421609  .00009326  00000-0  60302-3 0  9995,2 51808  53.2166  70.8601 0001478  77.2356 282.8802 15.08854734136138,6917.835,95.437,540.723,538.678,0.0
51808.0,STARLINK-3609,PAYLOAD,2024-08-04 23:17:27,15.08868711,0.0001438,53.2168,70.5642,85.4923,274.6234,0.0010624,0.00016674,0.0,0 STARLINK-3609,1 51808U 22017AS  24217.97045309  .00016674  00000-0  10624-2 0  9996,2 51808  53.2168  70.5642 0001438  85.4923 274.6234 15.08868711136249,6917.793,95.436,540.652,538.663,0.0
51808.0,STARLINK-3609,PAYLOAD,2024-08-05 07:14:22,15.08858317,0.0001486,53.2165,69.0763,83.582,276.5342,0.0010551,0.00016552,0.0,0 STARLINK-3609,1 51808U 22017AS  24218.30165405  .00016552  00000-0  10551-2 0  9998,2 51808  53.2165  69.0763 0001486  83.5820 276.5342 15.08858317136298,6917.824,95.436,540.717,538.661,0.0
51808.0,STARLINK-3609,PAYLOAD,2024-08-05 19:57:28,15.08831078,0.0001357,53.2157,66.6931,84.2916,275.8231,0.00059295,9.159e-05,0.0,0 STARLINK-3609,1 51808U 22017AS  24218.83158240  .00009159  00000-0  59295-3 0  9999,2 51808  53.2157  66.6931 0001357  84.2916 275.8231 15.08831078136373,6917.908,95.438,540.711,538.834,0.0
51808.0,STARLINK-3609,PAYLOAD,2024-08-05 21:32:51,15.08829815,0.0001224,53.215,66.3966,90.4644,269.6488,0.0014637,0.00023077,0.0,0 STARLINK-3609,1 51808U 22017AS  24218.89782340  .00023077  00000-0  14637-2 0  9994,2 51808  53.2150  66.3966 0001224  90.4644 269.6488 15.08829815136282,6917.912,95.438,540.623,538.93,0.0
51808.0,STARLINK-3609,PAYLOAD,2024-08-06 13:26:43,15.08845416,0.0001363,53.215,63.4274,90.0722,270.0426,0.001266,0.00019921,0.0,0 STARLINK-3609,1 51808U 22017AS  24219.56022806  .00019921  00000-0  12660-2 0  9990,2 51808  53.2150  63.4274 0001363  90.0722 270.0426 15.08845416136383,6917.864,95.437,540.672,538.786,0.0
